start=new Date('2022-12-21T00:00:00.000Z').valueOf();
sats=[{"MEAN_ELEMENT_THEORY":"SGP4","SEMIMAJOR_AXIS":"6917.832","REV_AT_EPOCH":"5909","OBJECT_ID":"2021-115E","RCS_SIZE":"LARGE","COUNTRY_CODE":"US","PERIOD":"95.437","TLE_LINE1":"1 49728U 21115E   22354.53483428  .00004450  00000-0  29737-3 0  9997","ARG_OF_PERICENTER":"26.7832","SITE":"AFETR","PERIAPSIS":"537.671","APOAPSIS":"541.722","INCLINATION":"53.2170","CLASSIFICATION_TYPE":"U","OBJECT_NAME":"STARLINK-3240","ELEMENT_SET_NO":"999","ECCENTRICITY":"0.00029280","OBJECT_TYPE":"PAYLOAD","DECAY_DATE":null,"RA_OF_ASC_NODE":"34.5938","EPOCH":"2022-12-20T12:50:09.681792","MEAN_MOTION_DOT":"0.00004450","BSTAR":"0.00029737000000","EPHEMERIS_TYPE":"0","MEAN_ANOMALY":"333.3311","MEAN_MOTION_DDOT":"0.0000000000000","CENTER_NAME":"EARTH","TLE_LINE2":"2 49728  53.2170  34.5938 0002928  26.7832 333.3311 15.08855967 59095","MEAN_MOTION":"15.08855967","REF_FRAME":"TEME","FILE":"3713335","TIME_SYSTEM":"UTC","LAUNCH_DATE":"2021-12-02","NORAD_CAT_ID":"49728","GP_ID":"221033900"},{"APOAPSIS":"541.409","INCLINATION":"53.2176","PERIAPSIS":"538.007","OBJECT_TYPE":"PAYLOAD","OBJECT_NAME":"STARLINK-3251","ECCENTRICITY":"0.00024590","ELEMENT_SET_NO":"999","CLASSIFICATION_TYPE":"U","REV_AT_EPOCH":"5798","OBJECT_ID":"2021-115F","SEMIMAJOR_AXIS":"6917.843","MEAN_ELEMENT_THEORY":"SGP4","SITE":"AFETR","ARG_OF_PERICENTER":"34.3815","PERIOD":"95.437","TLE_LINE1":"1 49729U 21115F   22354.53851467  .00003843  00000-0  25932-3 0  9998","RCS_SIZE":"LARGE","COUNTRY_CODE":"US","REF_FRAME":"TEME","MEAN_MOTION":"15.08852317","GP_ID":"221027940","LAUNCH_DATE":"2021-12-02","NORAD_CAT_ID":"49729","TIME_SYSTEM":"UTC","FILE":"3713130","RA_OF_ASC_NODE":"34.5903","DECAY_DATE":null,"TLE_LINE2":"2 49729  53.2176  34.5903 0002459  34.3815 325.7336 15.08852317 57983","MEAN_MOTION_DDOT":"0.0000000000000","CENTER_NAME":"EARTH","MEAN_ANOMALY":"325.7336","MEAN_MOTION_DOT":"0.00003843","EPOCH":"2022-12-20T12:55:27.667488","BSTAR":"0.00025932000000","EPHEMERIS_TYPE":"0"},{"DECAY_DATE":null,"RA_OF_ASC_NODE":"34.8373","EPHEMERIS_TYPE":"0","MEAN_MOTION_DOT":"0.00001128","BSTAR":"0.00008900100000","EPOCH":"2022-12-20T11:30:41.215680","MEAN_ANOMALY":"329.0564","CENTER_NAME":"EARTH","MEAN_MOTION_DDOT":"0.0000000000000","TLE_LINE2":"2 49730  53.2193  34.8373 0002496  31.0575 329.0564 15.08833195 57978","MEAN_MOTION":"15.08833195","REF_FRAME":"TEME","FILE":"3713130","TIME_SYSTEM":"UTC","NORAD_CAT_ID":"49730","LAUNCH_DATE":"2021-12-02","GP_ID":"221028692","MEAN_ELEMENT_THEORY":"SGP4","SEMIMAJOR_AXIS":"6917.901","REV_AT_EPOCH":"5797","OBJECT_ID":"2021-115G","COUNTRY_CODE":"US","RCS_SIZE":"LARGE","TLE_LINE1":"1 49730U 21115G   22354.47964370  .00001128  00000-0  89001-4 0  9993","PERIOD":"95.438","ARG_OF_PERICENTER":"31.0575","SITE":"AFETR","PERIAPSIS":"538.039","INCLINATION":"53.2193","APOAPSIS":"541.493","CLASSIFICATION_TYPE":"U","ECCENTRICITY":"0.00024960","ELEMENT_SET_NO":"999","OBJECT_NAME":"STARLINK-3249","OBJECT_TYPE":"PAYLOAD"},{"PERIAPSIS":"537.849","APOAPSIS":"541.625","INCLINATION":"53.2180","CLASSIFICATION_TYPE":"U","OBJECT_NAME":"STARLINK-3228","ECCENTRICITY":"0.00027290","ELEMENT_SET_NO":"999","OBJECT_TYPE":"PAYLOAD","MEAN_ELEMENT_THEORY":"SGP4","SEMIMAJOR_AXIS":"6917.872","OBJECT_ID":"2021-115H","REV_AT_EPOCH":"5913","RCS_SIZE":"LARGE","COUNTRY_CODE":"US","TLE_LINE1":"1 49731U 21115H   22354.80715130 -.00000293  00000-0 -25354-6 0  9996","PERIOD":"95.437","ARG_OF_PERICENTER":"26.4968","SITE":"AFETR","MEAN_MOTION":"15.08842741","REF_FRAME":"TEME","FILE":"3714007","TIME_SYSTEM":"UTC","LAUNCH_DATE":"2021-12-02","NORAD_CAT_ID":"49731","GP_ID":"221041403","DECAY_DATE":null,"RA_OF_ASC_NODE":"33.3714","MEAN_MOTION_DOT":"-0.00000293","BSTAR":"-0.00000025354000","EPOCH":"2022-12-20T19:22:17.872320","EPHEMERIS_TYPE":"0","MEAN_ANOMALY":"333.6163","MEAN_MOTION_DDOT":"0.0000000000000","CENTER_NAME":"EARTH","TLE_LINE2":"2 49731  53.2180  33.3714 0002729  26.4968 333.6163 15.08842741 59134"},{"SEMIMAJOR_AXIS":"6917.860","REV_AT_EPOCH":"5795","OBJECT_ID":"2021-115J","MEAN_ELEMENT_THEORY":"SGP4","SITE":"AFETR","ARG_OF_PERICENTER":"21.9813","COUNTRY_CODE":"US","RCS_SIZE":"LARGE","PERIOD":"95.437","TLE_LINE1":"1 49732U 21115J   22354.35818736  .00001903  00000-0  13762-3 0  9997","PERIAPSIS":"537.832","INCLINATION":"53.2173","APOAPSIS":"541.619","ECCENTRICITY":"0.00027370","ELEMENT_SET_NO":"999","OBJECT_NAME":"STARLINK-3246","OBJECT_TYPE":"PAYLOAD","CLASSIFICATION_TYPE":"U","DECAY_DATE":null,"RA_OF_ASC_NODE":"35.3844","CENTER_NAME":"EARTH","MEAN_MOTION_DDOT":"0.0000000000000","TLE_LINE2":"2 49732  53.2173  35.3844 0002737  21.9813 338.1296 15.08846598 57950","EPHEMERIS_TYPE":"0","EPOCH":"2022-12-20T08:35:47.387904","MEAN_MOTION_DOT":"0.00001903","BSTAR":"0.00013762000000","MEAN_ANOMALY":"338.1296","REF_FRAME":"TEME","MEAN_MOTION":"15.08846598","LAUNCH_DATE":"2021-12-02","NORAD_CAT_ID":"49732","GP_ID":"221027190","TIME_SYSTEM":"UTC","FILE":"3713130"},{"COUNTRY_CODE":"US","RCS_SIZE":"LARGE","PERIOD":"95.438","TLE_LINE1":"1 49733U 21115K   22354.48333017  .00013306  00000-0  85277-3 0  9996","ARG_OF_PERICENTER":"39.8792","SITE":"AFETR","MEAN_ELEMENT_THEORY":"SGP4","SEMIMAJOR_AXIS":"6917.916","OBJECT_ID":"2021-115K","REV_AT_EPOCH":"5797","CLASSIFICATION_TYPE":"U","ELEMENT_SET_NO":"999","ECCENTRICITY":"0.00026110","OBJECT_NAME":"STARLINK-3252","OBJECT_TYPE":"PAYLOAD","PERIAPSIS":"537.974","INCLINATION":"53.2182","APOAPSIS":"541.587","EPHEMERIS_TYPE":"0","EPOCH":"2022-12-20T11:35:59.726688","MEAN_MOTION_DOT":"0.00013306","BSTAR":"0.00085277000000","MEAN_ANOMALY":"320.2392","CENTER_NAME":"EARTH","MEAN_MOTION_DDOT":"0.0000000000000","TLE_LINE2":"2 49733  53.2182  34.8268 0002611  39.8792 320.2392 15.08828433 57979","DECAY_DATE":null,"RA_OF_ASC_NODE":"34.8268","TIME_SYSTEM":"UTC","FILE":"3713130","LAUNCH_DATE":"2021-12-02","NORAD_CAT_ID":"49733","GP_ID":"221027440","MEAN_MOTION":"15.08828433","REF_FRAME":"TEME"},{"REV_AT_EPOCH":"5929","OBJECT_ID":"2021-115L","SEMIMAJOR_AXIS":"6917.868","MEAN_ELEMENT_THEORY":"SGP4","ARG_OF_PERICENTER":"36.9885","SITE":"AFETR","TLE_LINE1":"1 49734U 21115L   22354.90008004  .00001030  00000-0  82790-4 0  9998","PERIOD":"95.437","COUNTRY_CODE":"US","RCS_SIZE":"LARGE","INCLINATION":"53.2182","APOAPSIS":"541.558","PERIAPSIS":"537.908","OBJECT_TYPE":"PAYLOAD","ELEMENT_SET_NO":"999","ECCENTRICITY":"0.00026380","OBJECT_NAME":"STARLINK-3238","CLASSIFICATION_TYPE":"U","RA_OF_ASC_NODE":"22.9741","DECAY_DATE":null,"TLE_LINE2":"2 49734  53.2182  22.9741 0002638  36.9885 323.1288 15.08844186 59290","CENTER_NAME":"EARTH","MEAN_MOTION_DDOT":"0.0000000000000","MEAN_ANOMALY":"323.1288","EPHEMERIS_TYPE":"0","MEAN_MOTION_DOT":"0.00001030","EPOCH":"2022-12-20T21:36:06.915456","BSTAR":"0.00008279000000","REF_FRAME":"TEME","MEAN_MOTION":"15.08844186","GP_ID":"221043475","LAUNCH_DATE":"2021-12-02","NORAD_CAT_ID":"49734","FILE":"3714103","TIME_SYSTEM":"UTC"},{"ELEMENT_SET_NO":"999","ECCENTRICITY":"0.00023380","OBJECT_NAME":"STARLINK-3113","OBJECT_TYPE":"PAYLOAD","CLASSIFICATION_TYPE":"U","PERIAPSIS":"538.119","INCLINATION":"53.2182","APOAPSIS":"541.353","SITE":"AFETR","ARG_OF_PERICENTER":"34.4826","COUNTRY_CODE":"US","RCS_SIZE":"LARGE","TLE_LINE1":"1 49735U 21115M   22354.81819649  .00001045  00000-0  83758-4 0  9995","PERIOD":"95.437","SEMIMAJOR_AXIS":"6917.871","REV_AT_EPOCH":"5913","OBJECT_ID":"2021-115M","MEAN_ELEMENT_THEORY":"SGP4","NORAD_CAT_ID":"49735","LAUNCH_DATE":"2021-12-02","GP_ID":"221046809","TIME_SYSTEM":"UTC","FILE":"3714261","REF_FRAME":"TEME","MEAN_MOTION":"15.08843088","CENTER_NAME":"EARTH","MEAN_MOTION_DDOT":"0.0000000000000","TLE_LINE2":"2 49735  53.2182  33.3231 0002338  34.4826 325.6317 15.08843088 59139","EPHEMERIS_TYPE":"0","EPOCH":"2022-12-20T19:38:12.176736","MEAN_MOTION_DOT":"0.00001045","BSTAR":"0.00008375800000","MEAN_ANOMALY":"325.6317","DECAY_DATE":null,"RA_OF_ASC_NODE":"33.3231"},{"DECAY_DATE":null,"RA_OF_ASC_NODE":"25.3089","EPHEMERIS_TYPE":"0","BSTAR":"0.00012019000000","MEAN_MOTION_DOT":"0.00001625","EPOCH":"2022-12-20T09:03:36.949536","MEAN_ANOMALY":"332.4081","CENTER_NAME":"EARTH","MEAN_MOTION_DDOT":"0.0000000000000","TLE_LINE2":"2 49736  53.2174  25.3089 0002575  27.7048 332.4081 15.08848772 58102","MEAN_MOTION":"15.08848772","REF_FRAME":"TEME","FILE":"3713130","TIME_SYSTEM":"UTC","NORAD_CAT_ID":"49736","LAUNCH_DATE":"2021-12-02","GP_ID":"221027691","MEAN_ELEMENT_THEORY":"SGP4","SEMIMAJOR_AXIS":"6917.854","OBJECT_ID":"2021-115N","REV_AT_EPOCH":"5810","COUNTRY_CODE":"US","RCS_SIZE":"LARGE","PERIOD":"95.437","TLE_LINE1":"1 49736U 21115N   22354.37751099  .00001625  00000-0  12019-3 0  9996","ARG_OF_PERICENTER":"27.7048","SITE":"AFETR","PERIAPSIS":"537.937","INCLINATION":"53.2174","APOAPSIS":"541.500","CLASSIFICATION_TYPE":"U","ECCENTRICITY":"0.00025750","ELEMENT_SET_NO":"999","OBJECT_NAME":"STARLINK-3148","OBJECT_TYPE":"PAYLOAD"},{"TIME_SYSTEM":"UTC","FILE":"3714238","NORAD_CAT_ID":"49737","LAUNCH_DATE":"2021-12-02","GP_ID":"221046630","MEAN_MOTION":"15.08856202","REF_FRAME":"TEME","EPHEMERIS_TYPE":"0","MEAN_MOTION_DOT":"0.00005717","BSTAR":"0.00037687000000","EPOCH":"2022-12-20T13:44:29.837184","MEAN_ANOMALY":"307.1636","CENTER_NAME":"EARTH","MEAN_MOTION_DDOT":"0.0000000000000","TLE_LINE2":"2 49737  53.2168  24.4324 0002160  52.9553 307.1636 15.08856202 59247","DECAY_DATE":null,"RA_OF_ASC_NODE":"24.4324","CLASSIFICATION_TYPE":"U","ECCENTRICITY":"0.00021600","ELEMENT_SET_NO":"999","OBJECT_NAME":"STARLINK-3225","OBJECT_TYPE":"PAYLOAD","PERIAPSIS":"538.202","INCLINATION":"53.2168","APOAPSIS":"541.190","COUNTRY_CODE":"US","RCS_SIZE":"LARGE","PERIOD":"95.437","TLE_LINE1":"1 49737U 21115P   22354.57256756  .00005717  00000-0  37687-3 0  9993","SITE":"AFETR","ARG_OF_PERICENTER":"52.9553","MEAN_ELEMENT_THEORY":"SGP4","SEMIMAJOR_AXIS":"6917.831","OBJECT_ID":"2021-115P","REV_AT_EPOCH":"5924"}];
